[{"OBJECT_NAME":"STARLINK-5487","OBJECT_ID":"2023-021AA","EPOCH":"2026-03-09T16:39:13.019616","MEAN_MOTION":14.98333844,"ECCENTRICITY":0.00031461,"INCLINATION":70.0013,"RA_OF_ASC_NODE":184.3814,"ARG_OF_PERICENTER":267.4295,"MEAN_ANOMALY":92.6504,"EPHEMERIS_TYPE":0,"CLASSIFICATION_TYPE":"U","NORAD_CAT_ID":55652,"ELEMENT_SET_NO":999,"REV_AT_EPOCH":16879,"BSTAR":3.2877177e-5,"MEAN_MOTION_DOT":2.99e-6,"MEAN_MOTION_DDOT":0},{"OBJECT_NAME":"PEGASUS DEB","OBJECT_ID":"1994-029AEZ","EPOCH":"2026-03-07T11:19:28.799040","MEAN_MOTION":14.72051152,"ECCENTRICITY":0.01604515,"INCLINATION":81.6595,"RA_OF_ASC_NODE":342.3991,"ARG_OF_PERICENTER":98.387,"MEAN_ANOMALY":263.5562,"EPHEMERIS_TYPE":0,"CLASSIFICATION_TYPE":"U","NORAD_CAT_ID":39314,"ELEMENT_SET_NO":999,"REV_AT_EPOCH":64575,"BSTAR":0.00096584038,"MEAN_MOTION_DOT":7.465e-5,"MEAN_MOTION_DDOT":0}]
